STARLINK-30801          
1 58184U 23167K   26068.18791736  .00000045  00000+0  11155-4 0  9994
2 58184  42.9984 146.6323 0002138 288.9169  71.1450 15.27573765130905
HAWK-11A                
1 62382U 24247F   26068.51231358  .00009457  00000+0  34106-3 0  9991
2 62382  44.9941 114.3328 0005466 327.3713  32.6832 15.28849427 67741
