[{"OBJECT_NAME":"STARLINK-30801","OBJECT_ID":"2023-167K","EPOCH":"2026-03-09T04:30:36.059904","MEAN_MOTION":15.27573765,"ECCENTRICITY":0.00021386,"INCLINATION":42.9984,"RA_OF_ASC_NODE":146.6323,"ARG_OF_PERICENTER":288.9169,"MEAN_ANOMALY":71.145,"EPHEMERIS_TYPE":0,"CLASSIFICATION_TYPE":"U","NORAD_CAT_ID":58184,"ELEMENT_SET_NO":999,"REV_AT_EPOCH":13090,"BSTAR":1.1155226e-5,"MEAN_MOTION_DOT":4.5e-7,"MEAN_MOTION_DDOT":0},{"OBJECT_NAME":"HAWK-11A","OBJECT_ID":"2024-247F","EPOCH":"2026-03-09T12:17:43.893312","MEAN_MOTION":15.28849427,"ECCENTRICITY":0.00054663,"INCLINATION":44.9941,"RA_OF_ASC_NODE":114.3328,"ARG_OF_PERICENTER":327.3713,"MEAN_ANOMALY":32.6832,"EPHEMERIS_TYPE":0,"CLASSIFICATION_TYPE":"U","NORAD_CAT_ID":62382,"ELEMENT_SET_NO":999,"REV_AT_EPOCH":6774,"BSTAR":0.00034106017,"MEAN_MOTION_DOT":9.457e-5,"MEAN_MOTION_DDOT":0}]
